{
  "type": "FeatureCollection",
  "features": [
    {
      "type": "Feature",
      "properties": {
        "norad_id": 38121,
        "name": "FENGYUN 1C DEB",
        "group": "fengyun-1c-debris",
        "lat": 17.965461694862956,
        "lon": 137.50730114202904,
        "alt_km": 850.4161275703382,
        "timestamp": "2025-12-14T22:38:41.047506+00:00",
        "meta_object_name": "FENGYUN 1C DEB",
        "meta_object_id": "1999-025EPS",
        "meta_epoch": "2025-12-13T04:20:01.430304",
        "meta_mean_motion": 14.21784212,
        "meta_eccentricity": 0.02064826,
        "meta_inclination": 99.1148,
        "meta_ra_of_asc_node": 138.6695,
        "meta_arg_of_pericenter": 126.4735,
        "meta_mean_anomaly": 235.5664,
        "meta_ephemeris_type": 0,
        "meta_classification_type": "U",
        "meta_norad_cat_id": 38121,
        "meta_element_set_no": 999,
        "meta_rev_at_epoch": 83926,
        "meta_bstar": 0.0016630973,
        "meta_mean_motion_dot": 4.5e-05,
        "meta_mean_motion_ddot": 0,
        "tle_line1": "1 38121U 99025EPS 25347.18057211  .00004500  00000+0  16631-2 0  9993",
        "tle_line2": "2 38121  99.1148 138.6695 0206482 126.4735 235.5664 14.21784212839268"
      },
      "geometry": {
        "type": "Point",
        "coordinates": [
          137.50730114202904,
          17.965461694862956
        ]
      }
    },
    {
      "type": "Feature",
      "properties": {
        "norad_id": 38122,
        "name": "FENGYUN 1C DEB",
        "group": "fengyun-1c-debris",
        "lat": 58.98540036125983,
        "lon": -174.5877012821244,
        "alt_km": 602.7280221937035,
        "timestamp": "2025-12-14T22:38:41.047516+00:00",
        "meta_object_name": "FENGYUN 1C DEB",
        "meta_object_id": "1999-025EPT",
        "meta_epoch": "2025-12-13T06:08:25.261152",
        "meta_mean_motion": 14.42652616,
        "meta_eccentricity": 0.02277513,
        "meta_inclination": 98.3184,
        "meta_ra_of_asc_node": 349.6796,
        "meta_arg_of_pericenter": 155.2121,
        "meta_mean_anomaly": 206.0219,
        "meta_ephemeris_type": 0,
        "meta_classification_type": "U",
        "meta_norad_cat_id": 38122,
        "meta_element_set_no": 999,
        "meta_rev_at_epoch": 67746,
        "meta_bstar": 0.00066332331,
        "meta_mean_motion_dot": 2.966e-05,
        "meta_mean_motion_ddot": 0,
        "tle_line1": "1 38122U 99025EPT 25347.25584793  .00002966  00000+0  66332-3 0  9990",
        "tle_line2": "2 38122  98.3184 349.6796 0227751 155.2121 206.0219 14.42652616677463"
      },
      "geometry": {
        "type": "Point",
        "coordinates": [
          -174.5877012821244,
          58.98540036125983
        ]
      }
    },
    {
      "type": "Feature",
      "properties": {
        "norad_id": 38124,
        "name": "FENGYUN 1C DEB",
        "group": "fengyun-1c-debris",
        "lat": -30.834465588064916,
        "lon": -54.27371433995626,
        "alt_km": 875.6873084716826,
        "timestamp": "2025-12-14T22:38:41.047526+00:00",
        "meta_object_name": "FENGYUN 1C DEB",
        "meta_object_id": "1999-025EPV",
        "meta_epoch": "2025-12-13T03:48:53.053632",
        "meta_mean_motion": 13.40935403,
        "meta_eccentricity": 0.03557245,
        "meta_inclination": 97.8087,
        "meta_ra_of_asc_node": 299.6458,
        "meta_arg_of_pericenter": 305.0279,
        "meta_mean_anomaly": 51.7953,
        "meta_ephemeris_type": 0,
        "meta_classification_type": "U",
        "meta_norad_cat_id": 38124,
        "meta_element_set_no": 999,
        "meta_rev_at_epoch": 54587,
        "meta_bstar": 0.00060323956,
        "meta_mean_motion_dot": 4.51e-06,
        "meta_mean_motion_ddot": 0,
        "tle_line1": "1 38124U 99025EPV 25347.15894738  .00000451  00000+0  60324-3 0  9996",
        "tle_line2": "2 38124  97.8087 299.6458 0355724 305.0279  51.7953 13.40935403545875"
      },
      "geometry": {
        "type": "Point",
        "coordinates": [
          -54.27371433995626,
          -30.834465588064916
        ]
      }
    },
    {
      "type": "Feature",
      "properties": {
        "norad_id": 38130,
        "name": "FENGYUN 1C DEB",
        "group": "fengyun-1c-debris",
        "lat": -41.78841771413003,
        "lon": 48.21700546383519,
        "alt_km": 1000.3213008867906,
        "timestamp": "2025-12-14T22:38:41.047536+00:00",
        "meta_object_name": "FENGYUN 1C DEB",
        "meta_object_id": "1999-025EQB",
        "meta_epoch": "2025-11-28T09:19:02.490528",
        "meta_mean_motion": 13.7720595,
        "meta_eccentricity": 0.02085156,
        "meta_inclination": 98.6035,
        "meta_ra_of_asc_node": 25.4413,
        "meta_arg_of_pericenter": 263.5047,
        "meta_mean_anomaly": 94.2329,
        "meta_ephemeris_type": 0,
        "meta_classification_type": "U",
        "meta_norad_cat_id": 38130,
        "meta_element_set_no": 999,
        "meta_rev_at_epoch": 69085,
        "meta_bstar": 0.0016964005,
        "meta_mean_motion_dot": 1.933e-05,
        "meta_mean_motion_ddot": 0,
        "tle_line1": "1 38130U 99025EQB 25332.38822327  .00001933  00000+0  16964-2 0  9993",
        "tle_line2": "2 38130  98.6035  25.4413 0208515 263.5047  94.2329 13.77205950690851"
      },
      "geometry": {
        "type": "Point",
        "coordinates": [
          48.21700546383519,
          -41.78841771413003
        ]
      }
    },
    {
      "type": "Feature",
      "properties": {
        "norad_id": 38135,
        "name": "FENGYUN 1C DEB",
        "group": "fengyun-1c-debris",
        "lat": -14.268982507664422,
        "lon": 47.92195153069974,
        "alt_km": 778.5916936937965,
        "timestamp": "2025-12-14T22:38:41.047546+00:00",
        "meta_object_name": "FENGYUN 1C DEB",
        "meta_object_id": "1999-025EQG",
        "meta_epoch": "2025-12-04T09:59:10.811040",
        "meta_mean_motion": 14.2524882,
        "meta_eccentricity": 0.0223375,
        "meta_inclination": 98.6606,
        "meta_ra_of_asc_node": 35.2993,
        "meta_arg_of_pericenter": 95.5388,
        "meta_mean_anomaly": 267.1312,
        "meta_ephemeris_type": 0,
        "meta_classification_type": "U",
        "meta_norad_cat_id": 38135,
        "meta_element_set_no": 999,
        "meta_rev_at_epoch": 60922,
        "meta_bstar": 0.00083169,
        "meta_mean_motion_dot": 2.494e-05,
        "meta_mean_motion_ddot": 0,
        "tle_line1": "1 38135U 99025EQG 25338.41609735  .00002494  00000+0  83169-3 0  9999",
        "tle_line2": "2 38135  98.6606  35.2993 0223375  95.5388 267.1312 14.25248820609225"
      },
      "geometry": {
        "type": "Point",
        "coordinates": [
          47.92195153069974,
          -14.268982507664422
        ]
      }
    },
    {
      "type": "Feature",
      "properties": {
        "norad_id": 38137,
        "name": "FENGYUN 1C DEB",
        "group": "fengyun-1c-debris",
        "lat": -1.5600133563457543,
        "lon": -148.60117013309767,
        "alt_km": 891.4607469431185,
        "timestamp": "2025-12-14T22:38:41.047557+00:00",
        "meta_object_name": "FENGYUN 1C DEB",
        "meta_object_id": "1999-025EQJ",
        "meta_epoch": "2025-12-11T22:03:53.453088",
        "meta_mean_motion": 14.06158007,
        "meta_eccentricity": 0.0046494,
        "meta_inclination": 98.8649,
        "meta_ra_of_asc_node": 28.6821,
        "meta_arg_of_pericenter": 71.683,
        "meta_mean_anomaly": 288.9388,
        "meta_ephemeris_type": 0,
        "meta_classification_type": "U",
        "meta_norad_cat_id": 38137,
        "meta_element_set_no": 999,
        "meta_rev_at_epoch": 63697,
        "meta_bstar": 0.00049172,
        "meta_mean_motion_dot": 7.73e-06,
        "meta_mean_motion_ddot": 0,
        "tle_line1": "1 38137U 99025EQJ 25345.91936867  .00000773  00000+0  49172-3 0  9997",
        "tle_line2": "2 38137  98.8649  28.6821 0046494  71.6830 288.9388 14.06158007636976"
      },
      "geometry": {
        "type": "Point",
        "coordinates": [
          -148.60117013309767,
          -1.5600133563457543
        ]
      }
    },
    {
      "type": "Feature",
      "properties": {
        "norad_id": 38143,
        "name": "FENGYUN 1C DEB",
        "group": "fengyun-1c-debris",
        "lat": -59.55492768632201,
        "lon": 60.54684181140295,
        "alt_km": 879.4197670741778,
        "timestamp": "2025-12-14T22:38:41.047567+00:00",
        "meta_object_name": "FENGYUN 1C DEB",
        "meta_object_id": "1999-025EQQ",
        "meta_epoch": "2025-12-10T09:32:31.718976",
        "meta_mean_motion": 14.04887386,
        "meta_eccentricity": 0.00563123,
        "meta_inclination": 99.0315,
        "meta_ra_of_asc_node": 40.3233,
        "meta_arg_of_pericenter": 227.9602,
        "meta_mean_anomaly": 131.6765,
        "meta_ephemeris_type": 0,
        "meta_classification_type": "U",
        "meta_norad_cat_id": 38143,
        "meta_element_set_no": 999,
        "meta_rev_at_epoch": 60250,
        "meta_bstar": 0.00083811483,
        "meta_mean_motion_dot": 1.321e-05,
        "meta_mean_motion_ddot": 0,
        "tle_line1": "1 38143U 99025EQQ 25344.39758934  .00001321  00000+0  83811-3 0  9990",
        "tle_line2": "2 38143  99.0315  40.3233 0056312 227.9602 131.6765 14.04887386602509"
      },
      "geometry": {
        "type": "Point",
        "coordinates": [
          60.54684181140295,
          -59.55492768632201
        ]
      }
    }
  ]
}